STARLINK-31787          
1 59650U 24082V   26068.24344506  .00001074  00000+0  48584-4 0  9995
2 59650  43.0025 142.3366 0001353 279.3186  80.7512 15.27563218104945
TRANSPORTER-12 OBJECT BA
1 62657U 25009BA  26068.70118713  .00011330  00000+0  42733-3 0  9991
2 62657  97.3985 151.1390 0000403 234.6623 125.4579 15.27214003 63739
